{
  "type": "FeatureCollection",
  "features": [
    {
      "type": "Feature",
      "properties": {
        "norad_id": 34036,
        "name": "COSMOS 2251 DEB",
        "group": "cosmos-2251-debris",
        "lat": -52.61911920765002,
        "lon": 137.23378962290514,
        "alt_km": 594.3250256703614,
        "timestamp": "2025-12-07T18:50:17.108399+00:00",
        "meta_object_name": "COSMOS 2251 DEB",
        "meta_object_id": "1993-036HX",
        "meta_epoch": "2025-12-07T06:14:00.947616",
        "meta_mean_motion": 14.94298892,
        "meta_eccentricity": 0.00137777,
        "meta_inclination": 74.0199,
        "meta_ra_of_asc_node": 160.321,
        "meta_arg_of_pericenter": 194.9965,
        "meta_mean_anomaly": 165.0812,
        "meta_ephemeris_type": 0,
        "meta_classification_type": "U",
        "meta_norad_cat_id": 34036,
        "meta_element_set_no": 999,
        "meta_rev_at_epoch": 88488,
        "meta_bstar": 0.0057201492,
        "meta_mean_motion_dot": 0.00062085,
        "meta_mean_motion_ddot": 0,
        "tle_line1": "1 34036U 93036HX  25341.25973319  .00062085  00000+0  57201-2 0  9998",
        "tle_line2": "2 34036  74.0199 160.3210 0013777 194.9965 165.0812 14.94298892884884"
      },
      "geometry": {
        "type": "Point",
        "coordinates": [
          137.23378962290514,
          -52.61911920765002
        ]
      }
    },
    {
      "type": "Feature",
      "properties": {
        "norad_id": 34037,
        "name": "COSMOS 2251 DEB",
        "group": "cosmos-2251-debris",
        "lat": -7.4117700922188945,
        "lon": 57.379874618797594,
        "alt_km": 797.5489110980707,
        "timestamp": "2025-12-07T18:50:17.108409+00:00",
        "meta_object_name": "COSMOS 2251 DEB",
        "meta_object_id": "1993-036HY",
        "meta_epoch": "2025-12-06T22:47:28.689504",
        "meta_mean_motion": 14.34641301,
        "meta_eccentricity": 0.005223,
        "meta_inclination": 74.0526,
        "meta_ra_of_asc_node": 61.0395,
        "meta_arg_of_pericenter": 112.81,
        "meta_mean_anomaly": 247.8581,
        "meta_ephemeris_type": 0,
        "meta_classification_type": "U",
        "meta_norad_cat_id": 34037,
        "meta_element_set_no": 999,
        "meta_rev_at_epoch": 87634,
        "meta_bstar": 0.00089835803,
        "meta_mean_motion_dot": 2.555e-05,
        "meta_mean_motion_ddot": 0,
        "tle_line1": "1 34037U 93036HY  25340.94963761  .00002555  00000+0  89836-3 0  9990",
        "tle_line2": "2 34037  74.0526  61.0395 0052230 112.8100 247.8581 14.34641301876342"
      },
      "geometry": {
        "type": "Point",
        "coordinates": [
          57.379874618797594,
          -7.4117700922188945
        ]
      }
    },
    {
      "type": "Feature",
      "properties": {
        "norad_id": 34040,
        "name": "COSMOS 2251 DEB",
        "group": "cosmos-2251-debris",
        "lat": -18.10846554117014,
        "lon": 68.65097619280283,
        "alt_km": 833.4347929685255,
        "timestamp": "2025-12-07T18:50:17.108419+00:00",
        "meta_object_name": "COSMOS 2251 DEB",
        "meta_object_id": "1993-036JB",
        "meta_epoch": "2025-12-06T23:37:30.853632",
        "meta_mean_motion": 13.68365187,
        "meta_eccentricity": 0.03428789,
        "meta_inclination": 73.9559,
        "meta_ra_of_asc_node": 75.3727,
        "meta_arg_of_pericenter": 29.9322,
        "meta_mean_anomaly": 332.0918,
        "meta_ephemeris_type": 0,
        "meta_classification_type": "U",
        "meta_norad_cat_id": 34040,
        "meta_element_set_no": 999,
        "meta_rev_at_epoch": 83521,
        "meta_bstar": 0.00057142181,
        "meta_mean_motion_dot": 7.14e-06,
        "meta_mean_motion_ddot": 0,
        "tle_line1": "1 34040U 93036JB  25340.98438488  .00000714  00000+0  57142-3 0  9991",
        "tle_line2": "2 34040  73.9559  75.3727 0342878  29.9322 332.0918 13.68365187835214"
      },
      "geometry": {
        "type": "Point",
        "coordinates": [
          68.65097619280283,
          -18.10846554117014
        ]
      }
    },
    {
      "type": "Feature",
      "properties": {
        "norad_id": 34045,
        "name": "COSMOS 2251 DEB",
        "group": "cosmos-2251-debris",
        "lat": 45.57995079239034,
        "lon": -23.120493327337105,
        "alt_km": 755.6766359190751,
        "timestamp": "2025-12-07T18:50:17.108428+00:00",
        "meta_object_name": "COSMOS 2251 DEB",
        "meta_object_id": "1993-036JG",
        "meta_epoch": "2025-12-07T05:18:11.820096",
        "meta_mean_motion": 14.34064062,
        "meta_eccentricity": 0.00254652,
        "meta_inclination": 74.0387,
        "meta_ra_of_asc_node": 320.9301,
        "meta_arg_of_pericenter": 46.0528,
        "meta_mean_anomaly": 331.6843,
        "meta_ephemeris_type": 0,
        "meta_classification_type": "U",
        "meta_norad_cat_id": 34045,
        "meta_element_set_no": 999,
        "meta_rev_at_epoch": 87954,
        "meta_bstar": 0.00017766273,
        "meta_mean_motion_dot": 4.72e-06,
        "meta_mean_motion_ddot": 0,
        "tle_line1": "1 34045U 93036JG  25341.22097014  .00000472  00000+0  17766-3 0  9999",
        "tle_line2": "2 34045  74.0387 320.9301 0025465  46.0528 331.6843 14.34064062879543"
      },
      "geometry": {
        "type": "Point",
        "coordinates": [
          -23.120493327337105,
          45.57995079239034
        ]
      }
    },
    {
      "type": "Feature",
      "properties": {
        "norad_id": 34046,
        "name": "COSMOS 2251 DEB",
        "group": "cosmos-2251-debris",
        "lat": 2.6072035844783605,
        "lon": -161.0217484525473,
        "alt_km": 723.3355277891142,
        "timestamp": "2025-12-07T18:50:17.108439+00:00",
        "meta_object_name": "COSMOS 2251 DEB",
        "meta_object_id": "1993-036JH",
        "meta_epoch": "2025-12-07T03:13:46.098912",
        "meta_mean_motion": 14.4640505,
        "meta_eccentricity": 0.00746887,
        "meta_inclination": 74.0396,
        "meta_ra_of_asc_node": 20.9385,
        "meta_arg_of_pericenter": 106.0316,
        "meta_mean_anomaly": 285.2353,
        "meta_ephemeris_type": 0,
        "meta_classification_type": "U",
        "meta_norad_cat_id": 34046,
        "meta_element_set_no": 999,
        "meta_rev_at_epoch": 87745,
        "meta_bstar": 0.0017518919,
        "meta_mean_motion_dot": 6.494e-05,
        "meta_mean_motion_ddot": 0,
        "tle_line1": "1 34046U 93036JH  25341.13456133  .00006494  00000+0  17519-2 0  9996",
        "tle_line2": "2 34046  74.0396  20.9385 0074688 106.0316 285.2353 14.46405050877453"
      },
      "geometry": {
        "type": "Point",
        "coordinates": [
          -161.0217484525473,
          2.6072035844783605
        ]
      }
    },
    {
      "type": "Feature",
      "properties": {
        "norad_id": 34050,
        "name": "COSMOS 2251 DEB",
        "group": "cosmos-2251-debris",
        "lat": -47.22603550157266,
        "lon": -143.48921737988744,
        "alt_km": 1041.3204289959067,
        "timestamp": "2025-12-07T18:50:17.108449+00:00",
        "meta_object_name": "COSMOS 2251 DEB",
        "meta_object_id": "1993-036JM",
        "meta_epoch": "2025-12-06T09:09:45.893952",
        "meta_mean_motion": 13.96165357,
        "meta_eccentricity": 0.02146149,
        "meta_inclination": 74.0887,
        "meta_ra_of_asc_node": 20.9585,
        "meta_arg_of_pericenter": 86.9094,
        "meta_mean_anomaly": 291.642,
        "meta_ephemeris_type": 0,
        "meta_classification_type": "U",
        "meta_norad_cat_id": 34050,
        "meta_element_set_no": 999,
        "meta_rev_at_epoch": 85343,
        "meta_bstar": 0.00092583138,
        "meta_mean_motion_dot": 1.522e-05,
        "meta_mean_motion_ddot": 0,
        "tle_line1": "1 34050U 93036JM  25340.38178118  .00001522  00000+0  92583-3 0  9993",
        "tle_line2": "2 34050  74.0887  20.9585 0214614  86.9094 291.6420 13.96165357853434"
      },
      "geometry": {
        "type": "Point",
        "coordinates": [
          -143.48921737988744,
          -47.22603550157266
        ]
      }
    },
    {
      "type": "Feature",
      "properties": {
        "norad_id": 34053,
        "name": "COSMOS 2251 DEB",
        "group": "cosmos-2251-debris",
        "lat": -43.76579784651591,
        "lon": -125.96364464312829,
        "alt_km": 1043.952474447845,
        "timestamp": "2025-12-07T18:50:17.108459+00:00",
        "meta_object_name": "COSMOS 2251 DEB",
        "meta_object_id": "1993-036JQ",
        "meta_epoch": "2025-12-06T19:55:24.201408",
        "meta_mean_motion": 13.49147066,
        "meta_eccentricity": 0.04218713,
        "meta_inclination": 73.8444,
        "meta_ra_of_asc_node": 251.6934,
        "meta_arg_of_pericenter": 41.2312,
        "meta_mean_anomaly": 321.9855,
        "meta_ephemeris_type": 0,
        "meta_classification_type": "U",
        "meta_norad_cat_id": 34053,
        "meta_element_set_no": 999,
        "meta_rev_at_epoch": 82604,
        "meta_bstar": 0.0013589644,
        "meta_mean_motion_dot": 1.459e-05,
        "meta_mean_motion_ddot": 0,
        "tle_line1": "1 34053U 93036JQ  25340.83014122  .00001459  00000+0  13590-2 0  9999",
        "tle_line2": "2 34053  73.8444 251.6934 0421871  41.2312 321.9855 13.49147066826047"
      },
      "geometry": {
        "type": "Point",
        "coordinates": [
          -125.96364464312829,
          -43.76579784651591
        ]
      }
    }
  ]
}